{"type": "FeatureCollection", "features": [ {"type": "Feature", "properties": {"norad_id": 34635, "name": "COSMOS 2251 DEB", "group": "cosmos-2251-debris", "lat": 9.791794893627287, "lon": -121.07208966388404, "alt_km": 652.620936762034, "timestamp": "2025-12-17T09:00:17.542674+00:00", "meta": {"OBJECT_NAME": "COSMOS 2251 DEB", "OBJECT_ID": "1993-036XG", "EPOCH": "2025-12-16T23:14:07.207008", "MEAN_MOTION": 14.68324094, "ECCENTRICITY": 0.0028184, "INCLINATION": 74.0463, "RA_OF_ASC_NODE": 62.544, "ARG_OF_PERICENTER": 129.8872, "MEAN_ANOMALY": 48.7627, "EPHEMERIS_TYPE": 0, "CLASSIFICATION_TYPE": "U", "NORAD_CAT_ID": 34635, "ELEMENT_SET_NO": 999, "REV_AT_EPOCH": 73281, "BSTAR": 0.00084811589, "MEAN_MOTION_DOT": 4.898e-05, "MEAN_MOTION_DDOT": 0}, "tle": {"line1": "1 34635U 93036XG  25350.96813897  .00004898  00000+0  84812-3 0  9992", "line2": "2 34635  74.0463  62.5440 0028184 129.8872  48.7627 14.68324094732814"}}, "geometry": {"type": "Point", "coordinates": [-121.07208966388404, 9.791794893627287]}}, {"type": "Feature", "properties": {"norad_id": 34637, "name": "COSMOS 2251 DEB", "group": "cosmos-2251-debris", "lat": -41.64224174573141, "lon": -72.95135522089738, "alt_km": 682.4442125698706, "timestamp": "2025-12-17T09:00:17.542684+00:00", "meta": {"OBJECT_NAME": "COSMOS 2251 DEB", "OBJECT_ID": "1993-036XJ", "EPOCH": "2025-12-16T17:45:36.780192", "MEAN_MOTION": 14.60134531, "ECCENTRICITY": 0.00494851, "INCLINATION": 74.0497, "RA_OF_ASC_NODE": 93.5276, "ARG_OF_PERICENTER": 162.9254, "MEAN_ANOMALY": 322.6852, "EPHEMERIS_TYPE": 0, "CLASSIFICATION_TYPE": "U", "NORAD_CAT_ID": 34637, "ELEMENT_SET_NO": 999, "REV_AT_EPOCH": 88585, "BSTAR": 0.00067925884, "MEAN_MOTION_DOT": 3.297e-05, "MEAN_MOTION_DDOT": 0}, "tle": {"line1": "1 34637U 93036XJ  25350.74000903  .00003297  00000+0  67926-3 0  9995", "line2": "2 34637  74.0497  93.5276 0049485 162.9254 322.6852 14.60134531885857"}}, "geometry": {"type": "Point", "coordinates": [-72.95135522089738, -41.64224174573141]}}, {"type": "Feature", "properties": {"norad_id": 34641, "name": "COSMOS 2251 DEB", "group": "cosmos-2251-debris", "lat": 70.69500886135461, "lon": 128.6791601123049, "alt_km": 712.4285319469427, "timestamp": "2025-12-17T09:00:17.542695+00:00", "meta": {"OBJECT_NAME": "COSMOS 2251 DEB", "OBJECT_ID": "1993-036XN", "EPOCH": "2025-12-16T23:32:05.646624", "MEAN_MOTION": 14.52036603, "ECCENTRICITY": 0.00186177, "INCLINATION": 73.84, "RA_OF_ASC_NODE": 73.5613, "ARG_OF_PERICENTER": 347.3109, "MEAN_ANOMALY": 190.022, "EPHEMERIS_TYPE": 0, "CLASSIFICATION_TYPE": "U", "NORAD_CAT_ID": 34641, "ELEMENT_SET_NO": 999, "REV_AT_EPOCH": 88317, "BSTAR": 0.00071542702, "MEAN_MOTION_DOT": 2.87e-05, "MEAN_MOTION_DDOT": 0}, "tle": {"line1": "1 34641U 93036XN  25350.98062091  .00002870  00000+0  71543-3 0  9998", "line2": "2 34641  73.8400  73.5613 0018617 347.3109 190.0220 14.52036603883178"}}, "geometry": {"type": "Point", "coordinates": [128.6791601123049, 70.69500886135461]}}, {"type": "Feature", "properties": {"norad_id": 34642, "name": "COSMOS 2251 DEB", "group": "cosmos-2251-debris", "lat": -2.2927266929158816, "lon": -28.88541039117323, "alt_km": 1033.4318439107928, "timestamp": "2025-12-17T09:00:17.542705+00:00", "meta": {"OBJECT_NAME": "COSMOS 2251 DEB", "OBJECT_ID": "1993-036XP", "EPOCH": "2025-12-16T09:42:12.280320", "MEAN_MOTION": 13.98984283, "ECCENTRICITY": 0.0206859, "INCLINATION": 74.0048, "RA_OF_ASC_NODE": 333.4536, "ARG_OF_PERICENTER": 152.463, "MEAN_ANOMALY": 358.4975, "EPHEMERIS_TYPE": 0, "CLASSIFICATION_TYPE": "U", "NORAD_CAT_ID": 34642, "ELEMENT_SET_NO": 999, "REV_AT_EPOCH": 85344, "BSTAR": 0.00063761054, "MEAN_MOTION_DOT": 1.084e-05, "MEAN_MOTION_DDOT": 0}, "tle": {"line1": "1 34642U 93036XP  25350.40430880  .00001084  00000+0  63761-3 0  9990", "line2": "2 34642  74.0048 333.4536 0206859 152.4630 358.4975 13.98984283853442"}}, "geometry": {"type": "Point", "coordinates": [-28.88541039117323, -2.2927266929158816]}}, {"type": "Feature", "properties": {"norad_id": 34671, "name": "COSMOS 2251 DEB", "group": "cosmos-2251-debris", "lat": 66.30349701493243, "lon": 166.08802593742269, "alt_km": 669.2262224740261, "timestamp": "2025-12-17T09:00:17.542715+00:00", "meta": {"OBJECT_NAME": "COSMOS 2251 DEB", "OBJECT_ID": "1993-036XR", "EPOCH": "2025-12-16T20:09:54.832608", "MEAN_MOTION": 14.6700884, "ECCENTRICITY": 0.00111433, "INCLINATION": 74.026, "RA_OF_ASC_NODE": 126.379, "ARG_OF_PERICENTER": 207.2862, "MEAN_ANOMALY": 280.8912, "EPHEMERIS_TYPE": 0, "CLASSIFICATION_TYPE": "U", "NORAD_CAT_ID": 34671, "ELEMENT_SET_NO": 999, "REV_AT_EPOCH": 88357, "BSTAR": 0.0012197079, "MEAN_MOTION_DOT": 6.819e-05, "MEAN_MOTION_DDOT": 0}, "tle": {"line1": "1 34671U 93036XR  25350.84021797  .00006819  00000+0  12197-2 0  9990", "line2": "2 34671  74.0260 126.3790 0011143 207.2862 280.8912 14.67008840883576"}}, "geometry": {"type": "Point", "coordinates": [166.08802593742269, 66.30349701493243]}}, {"type": "Feature", "properties": {"norad_id": 34672, "name": "COSMOS 2251 DEB", "group": "cosmos-2251-debris", "lat": 69.85204517321594, "lon": 65.78567195084595, "alt_km": 764.5444245777662, "timestamp": "2025-12-17T09:00:17.542726+00:00", "meta": {"OBJECT_NAME": "COSMOS 2251 DEB", "OBJECT_ID": "1993-036XS", "EPOCH": "2025-12-11T16:16:44.249952", "MEAN_MOTION": 14.36406242, "ECCENTRICITY": 0.00236356, "INCLINATION": 74.0334, "RA_OF_ASC_NODE": 307.539, "ARG_OF_PERICENTER": 19.6523, "MEAN_ANOMALY": 155.1005, "EPHEMERIS_TYPE": 0, "CLASSIFICATION_TYPE": "U", "NORAD_CAT_ID": 34672, "ELEMENT_SET_NO": 999, "REV_AT_EPOCH": 65162, "BSTAR": 0.00043649208, "MEAN_MOTION_DOT": 1.257e-05, "MEAN_MOTION_DDOT": 0}, "tle": {"line1": "1 34672U 93036XS  25345.67828993  .00001257  00000+0  43649-3 0  9997", "line2": "2 34672  74.0334 307.5390 0023635  19.6523 155.1005 14.36406242651626"}}, "geometry": {"type": "Point", "coordinates": [65.78567195084595, 69.85204517321594]}}, {"type": "Feature", "properties": {"norad_id": 34678, "name": "COSMOS 2251 DEB", "group": "cosmos-2251-debris", "lat": 0.4386574944502245, "lon": 177.14026689291632, "alt_km": 806.3414045136306, "timestamp": "2025-12-17T09:00:17.542736+00:00", "meta": {"OBJECT_NAME": "COSMOS 2251 DEB", "OBJECT_ID": "1993-036XY", "EPOCH": "2025-12-16T11:02:37.108608", "MEAN_MOTION": 14.30065676, "ECCENTRICITY": 0.00245146, "INCLINATION": 74.0376, "RA_OF_ASC_NODE": 358.9287, "ARG_OF_PERICENTER": 46.8807, "MEAN_ANOMALY": 103.3309, "EPHEMERIS_TYPE": 0, "CLASSIFICATION_TYPE": "U", "NORAD_CAT_ID": 34678, "ELEMENT_SET_NO": 999, "REV_AT_EPOCH": 87432, "BSTAR": 3.1918367e-05, "MEAN_MOTION_DOT": 5.7e-07, "MEAN_MOTION_DDOT": 0}, "tle": {"line1": "1 34678U 93036XY  25350.46015172  .00000057  00000+0  31918-4 0  9997", "line2": "2 34678  74.0376 358.9287 0024514  46.8807 103.3309 14.30065676874329"}}, "geometry": {"type": "Point", "coordinates": [177.14026689291632, 0.4386574944502245]}}, {"type": "Feature", "properties": {"norad_id": 34680, "name": "COSMOS 2251 DEB", "group": "cosmos-2251-debris", "lat": -65.54486433673492, "lon": -20.004836163838362, "alt_km": 693.8816480334635, "timestamp": "2025-12-17T09:00:17.542746+00:00", "meta": {"OBJECT_NAME": "COSMOS 2251 DEB", "OBJECT_ID": "1993-036YA", "EPOCH": "2025-12-16T15:31:15.511584", "MEAN_MOTION": 14.60667066, "ECCENTRICITY": 0.00066114, "INCLINATION": 74.0425, "RA_OF_ASC_NODE": 122.3971, "ARG_OF_PERICENTER": 221.4971, "MEAN_ANOMALY": 160.4979, "EPHEMERIS_TYPE": 0, "CLASSIFICATION_TYPE": "U", "NORAD_CAT_ID": 34680, "ELEMENT_SET_NO": 999, "REV_AT_EPOCH": 88385, "BSTAR": 0.00085538922, "MEAN_MOTION_DOT": 4.139e-05, "MEAN_MOTION_DDOT": 0}, "tle": {"line1": "1 34680U 93036YA  25350.64670731  .00004139  00000+0  85539-3 0  9990", "line2": "2 34680  74.0425 122.3971 0006611 221.4971 160.4979 14.60667066883850"}}, "geometry": {"type": "Point", "coordinates": [-20.004836163838362, -65.54486433673492]}}, {"type": "Feature", "properties": {"norad_id": 34681, "name": "COSMOS 2251 DEB", "group": "cosmos-2251-debris", "lat": 40.96410222369269, "lon": 86.8687225398633, "alt_km": 632.058275873298, "timestamp": "2025-12-17T09:00:17.542773+00:00", "meta": {"OBJECT_NAME": "COSMOS 2251 DEB", "OBJECT_ID": "1993-036YB", "EPOCH": "2025-12-16T21:23:05.957088", "MEAN_MOTION": 14.8331548, "ECCENTRICITY": 0.00256208, "INCLINATION": 74.0629, "RA_OF_ASC_NODE": 282.1896, "ARG_OF_PERICENTER": 338.4637, "MEAN_ANOMALY": 94.0534, "EPHEMERIS_TYPE": 0, "CLASSIFICATION_TYPE": "U", "NORAD_CAT_ID": 34681, "ELEMENT_SET_NO": 999, "REV_AT_EPOCH": 89332, "BSTAR": 0.0011706716, "MEAN_MOTION_DOT": 9.621e-05, "MEAN_MOTION_DDOT": 0}, "tle": {"line1": "1 34681U 93036YB  25350.89104117  .00009621  00000+0  11707-2 0  9994", "line2": "2 34681  74.0629 282.1896 0025620 338.4637  94.0534 14.83315480893324"}}, "geometry": {"type": "Point", "coordinates": [86.8687225398633, 40.96410222369269]}}, {"type": "Feature", "properties": {"norad_id": 34682, "name": "COSMOS 2251 DEB", "group": "cosmos-2251-debris", "lat": -23.761558886363915, "lon": -98.60166582554353, "alt_km": 688.9336942302225, "timestamp": "2025-12-17T09:00:17.542786+00:00", "meta": {"OBJECT_NAME": "COSMOS 2251 DEB", "OBJECT_ID": "1993-036YC", "EPOCH": "2025-12-16T12:24:01.658304", "MEAN_MOTION": 14.58923875, "ECCENTRICITY": 0.00181746, "INCLINATION": 74.0401, "RA_OF_ASC_NODE": 75.7947, "ARG_OF_PERICENTER": 208.4541, "MEAN_ANOMALY": 169.0262, "EPHEMERIS_TYPE": 0, "CLASSIFICATION_TYPE": "U", "NORAD_CAT_ID": 34682, "ELEMENT_SET_NO": 999, "REV_AT_EPOCH": 88741, "BSTAR": 0.00054857307, "MEAN_MOTION_DOT": 2.548e-05, "MEAN_MOTION_DDOT": 0}, "tle": {"line1": "1 34682U 93036YC  25350.51668586  .00002548  00000+0  54857-3 0  9994", "line2": "2 34682  74.0401  75.7947 0018174 208.4541 169.0262 14.58923875887411"}}, "geometry": {"type": "Point", "coordinates": [-98.60166582554353, -23.761558886363915]}}]}